[{"OBJECT_NAME":"STARLINK-5545","OBJECT_ID":"2023-064AE","EPOCH":"2026-03-09T12:43:53.603328","MEAN_MOTION":14.98330169,"ECCENTRICITY":0.00029529,"INCLINATION":69.9995,"RA_OF_ASC_NODE":124.9344,"ARG_OF_PERICENTER":272.6194,"MEAN_ANOMALY":87.4627,"EPHEMERIS_TYPE":0,"CLASSIFICATION_TYPE":"U","NORAD_CAT_ID":56476,"ELEMENT_SET_NO":999,"REV_AT_EPOCH":15571,"BSTAR":-9.6141793e-5,"MEAN_MOTION_DOT":-1.24e-5,"MEAN_MOTION_DDOT":0},{"OBJECT_NAME":"CZ-6A DEB","OBJECT_ID":"2024-140JC","EPOCH":"2026-03-09T14:01:12.922176","MEAN_MOTION":14.64694473,"ECCENTRICITY":0.014784,"INCLINATION":89.1286,"RA_OF_ASC_NODE":290.7968,"ARG_OF_PERICENTER":217.7727,"MEAN_ANOMALY":141.3041,"EPHEMERIS_TYPE":0,"CLASSIFICATION_TYPE":"U","NORAD_CAT_ID":60849,"ELEMENT_SET_NO":999,"REV_AT_EPOCH":8376,"BSTAR":0.00043726,"MEAN_MOTION_DOT":2.75e-5,"MEAN_MOTION_DDOT":0}]
